[{"OBJECT_NAME":"ONEWEB-0668","OBJECT_ID":"2023-068B","EPOCH":"2026-03-09T20:56:59.092224","MEAN_MOTION":13.16593747,"ECCENTRICITY":0.00017989,"INCLINATION":87.9017,"RA_OF_ASC_NODE":248.5184,"ARG_OF_PERICENTER":77.2419,"MEAN_ANOMALY":282.8913,"EPHEMERIS_TYPE":0,"CLASSIFICATION_TYPE":"U","NORAD_CAT_ID":56711,"ELEMENT_SET_NO":999,"REV_AT_EPOCH":13871,"BSTAR":4.4873415e-5,"MEAN_MOTION_DOT":3.0e-7,"MEAN_MOTION_DDOT":0},{"OBJECT_NAME":"SL-14 DEB","OBJECT_ID":"1991-056E","EPOCH":"2026-03-09T20:54:45.656064","MEAN_MOTION":13.15668367,"ECCENTRICITY":0.00108749,"INCLINATION":82.5565,"RA_OF_ASC_NODE":213.308,"ARG_OF_PERICENTER":91.0131,"MEAN_ANOMALY":269.2237,"EPHEMERIS_TYPE":0,"CLASSIFICATION_TYPE":"U","NORAD_CAT_ID":45268,"ELEMENT_SET_NO":999,"REV_AT_EPOCH":29150,"BSTAR":-0.00014585934,"MEAN_MOTION_DOT":-4.3e-7,"MEAN_MOTION_DDOT":0}]
